COSMOS 2251 DEB         
1 37084U 93036BFE 17343.28608940  .00000377  00000-0  47411-4 0  9996
2 37084  74.0330 204.5912 0141493 332.6338  26.7431 14.79511593228677
